{
    "links": {
        "self": "http://www.neowsapp.com/rest/v1/neo/3989415?api_key=iIulBulltgU6a56xZRHN4H3l9WmuAYTsLGpBGhQ2"
    },
    "id": "3989415",
    "neo_reference_id": "3989415",
    "name": "(2020 CS)",
    "designation": "2020 CS",
    "nasa_jpl_url": "http://ssd.jpl.nasa.gov/sbdb.cgi?sstr=3989415",
    "absolute_magnitude_h": 28.029,
    "estimated_diameter": {
        "kilometers": {
            "estimated_diameter_min": 0.006588021,
            "estimated_diameter_max": 0.0147312629
        },
        "meters": {
            "estimated_diameter_min": 6.5880210265,
            "estimated_diameter_max": 14.7312628525
        },
        "miles": {
            "estimated_diameter_min": 0.0040936052,
            "estimated_diameter_max": 0.0091535795
        },
        "feet": {
            "estimated_diameter_min": 21.6142429046,
            "estimated_diameter_max": 48.330916417
        }
    },
    "is_potentially_hazardous_asteroid": false,
    "close_approach_data": [
        {
            "close_approach_date": "2020-01-30",
            "close_approach_date_full": "2020-Jan-30 07:25",
            "epoch_date_close_approach": 1580369100000,
            "relative_velocity": {
                "kilometers_per_second": "6.1579569927",
                "kilometers_per_hour": "22168.6451738553",
                "miles_per_hour": "13774.7339970547"
            },
            "miss_distance": {
                "astronomical": "0.0116708139",
                "lunar": "4.5399466071",
                "kilometers": "1745928.900606393",
                "miles": "1084869.9127505034"
            },
            "orbiting_body": "Earth"
        }
    ],
    "orbital_data": {
        "orbit_id": "3",
        "orbit_determination_date": "2020-02-19 09:41:13",
        "first_observation_date": "2020-01-31",
        "last_observation_date": "2020-02-03",
        "data_arc_in_days": 3,
        "observations_used": 22,
        "orbit_uncertainty": "7",
        "minimum_orbit_intersection": ".0108384",
        "jupiter_tisserand_invariant": "4.098",
        "epoch_osculation": "2459000.5",
        "eccentricity": ".4155406033672592",
        "semi_major_axis": "1.699133678762109",
        "inclination": "5.057586535236432",
        "ascending_node_longitude": "129.6475314852048",
        "orbital_period": "808.9836588886759",
        "perihelion_distance": ".9930746446876716",
        "perihelion_argument": "351.1028053004858",
        "aphelion_distance": "2.405192712836547",
        "perihelion_time": "2458871.478009739553",
        "mean_anomaly": "57.4151479865092",
        "mean_motion": ".4450028082081934",
        "equinox": "J2000",
        "orbit_class": {
            "orbit_class_type": "APO",
            "orbit_class_description": "Near-Earth asteroid orbits which cross the Earth’s orbit similar to that of 1862 Apollo",
            "orbit_class_range": "a (semi-major axis) > 1.0 AU; q (perihelion) < 1.017 AU"
        }
    },
    "is_sentry_object": false
}